STARLINK-6357           
1 56783U 23078S   23332.25001157 -.00891085  00000+0 -20722-1 0  9999
2 56783  70.0010 265.6280 0003422 269.9771 118.6945 15.44595549 28689
STARLINK-6354           
1 56784U 23078T   23331.91667824 -.00946615  00000+0 -21793-1 0  9990
2 56784  70.0012 266.5350 0003499 262.7985  68.9059 15.45040140  5830
STARLINK-5931           
1 56785U 23078U   23331.90270182  .00003589  00000+0  30839-3 0  9992
2 56785  70.0022 284.3306 0002282 266.0544  94.0354 14.98331406 28623
STARLINK-6341           
1 56786U 23078V   23331.91667824 -.00950593  00000+0 -21567-1 0  9991
2 56786  70.0012 266.5277 0003482 263.1279  75.0452 15.45477196  6059
STARLINK-6326           
1 56787U 23078W   23332.25001157 -.00886576  00000+0 -20082-1 0  9991
2 56787  70.0009 265.6152 0003423 270.0641 129.8327 15.45351799 28685
STARLINK-6336           
1 56788U 23078X   23332.25001157 -.00886784  00000+0 -20313-1 0  9990
2 56788  70.0009 265.6204 0003422 268.6117 126.8252 15.45025525 28683
STARLINK-6325           
1 56789U 23078Y   23331.93933865  .00000626  00000+0  69762-5 0  9991
2 56789  70.0000 265.3436 0003581 272.2834  87.7952 15.69909898 29078
STARLINK-6345           
1 56790U 23078Z   23331.94049274 -.00000561  00000+0 -28940-5 0  9999
2 56790  69.9994 265.3457 0003008 266.6403  93.4449 15.69930819 28403
STARLINK-5977           
1 56791U 23078AA  23332.09062757 -.00000888  00000+0 -66638-4 0  9995
2 56791  70.0027 283.7849 0002270 241.9006 118.1924 14.98330359 28225
STARLINK-6046           
1 56792U 23078AB  23331.90687158 -.00001509  00000+0 -11868-3 0  9998
2 56792  70.0004 284.3456 0002393 262.6144  97.4744 14.98350645 27937
STARLINK-6052           
1 56793U 23078AC  23332.08210941 -.00000434  00000+0 -28617-4 0  9998
2 56793  70.0017 283.7530 0002584 235.6317 124.4598 14.98333099 28227
STARLINK-6060           
1 56794U 23078AD  23331.91667824 -.00954259  00000+0 -20923-1 0  9998
2 56794  70.0013 266.5126 0003511 265.8810  85.3594 15.46477619  6035
STARLINK-6061           
1 56795U 23078AE  23331.91667824 -.00955626  00000+0 -20143-1 0  9992
2 56795  70.0013 266.4974 0003511 263.8439 100.4198 15.47615931  6043
STARLINK-6049           
1 56796U 23078AF  23332.09881380  .00003318  00000+0  28587-3 0  9990
2 56796  70.0004 283.8097 0002133 256.1258 103.9664 14.98311706 28224
STARLINK-6058           
1 56797U 23078AG  23332.08628007 -.00007988  00000+0 -66171-3 0  9995
2 56797  70.0016 283.7638 0001951 239.2725 120.8242 14.98372827 28227
STARLINK-6068           
1 56798U 23078AH  23331.91667824 -.00954357  00000+0 -20879-1 0  9991
2 56798  70.0013 266.5109 0003472 266.9364  85.7068 15.46542044  5935
STARLINK-5953           
1 56799U 23078AJ  23332.13217793 -.00000759  00000+0 -55833-4 0  9992
2 56799  70.0033 283.5261 0002567 217.5674 142.5306 14.98326388 28238
STARLINK-6036           
1 56800U 23078AK  23332.09046309 -.00001173  00000+0 -90544-4 0  9992
2 56800  70.0025 283.7813 0002066 255.1258 104.9672 14.98329144 28227
STARLINK-6087           
1 56801U 23078AL  23332.25001157 -.00876409  00000+0 -19240-1 0  9996
2 56801  70.0010 265.5948 0003460 274.1275 143.2612 15.46648824 28681
STARLINK-6070           
1 56802U 23078AM  23331.91667824 -.00948891  00000+0 -20147-1 0  9991
2 56802  70.0013 266.6501 0003494 261.3175 330.2873 15.47389617 28631
STARLINK-6029           
1 56803U 23078AN  23332.01118276 -.00000163  00000+0 -58713-5 0  9991
2 56803  70.0015 283.9049 0002421 241.0503 119.0413 14.98326623 28212
STARLINK-6069           
1 56804U 23078AP  23332.25001157 -.00889453  00000+0 -19607-1 0  9999
2 56804  70.0010 265.6020 0003532 272.8787 138.3761 15.46148369 28688
STARLINK-6064           
1 56805U 23078AQ  23331.91667824 -.00955544  00000+0 -20447-1 0  9990
2 56805  70.0014 266.5028 0003515 264.1384  95.3688 15.47183158 28630
STARLINK-6072           
1 56806U 23078AR  23332.13005720  .00002247  00000+0  20450-4 0  9995
2 56806  70.0019 264.8033 0002519 220.1772 139.9238 15.69919538 28694
STARLINK-6073           
1 56807U 23078AS  23331.91667824 -.00955808  00000+0 -19989-1 0  9994
2 56807  70.0014 266.4947 0003476 274.2080  92.3641 15.47842032 28631
STARLINK-6042           
1 56808U 23078AT  23331.93780111  .00004954  00000+0  42941-4 0  9994
2 56808  70.0029 264.4693 0003702 280.2394  79.8384 15.69924967 28424
STARLINK-6040           
1 56809U 23078AU  23332.12382423 -.00000454  00000+0 -30242-4 0  9995
2 56809  70.0014 283.5016 0002179 246.5323 113.5607 14.98335930 28234
STARLINK-6031           
1 56810U 23078AV  23332.00700856 -.00000782  00000+0 -57738-4 0  9991
2 56810  70.0032 283.8923 0002083 239.4459 120.6494 14.98324663 28213
STARLINK-6063           
1 56811U 23078AW  23331.93740221  .00004243  00000+0  36953-4 0  9993
2 56811  70.0037 265.3316 0002497 237.2093 122.8863 15.69978295 28667
STARLINK-6065           
1 56812U 23078AX  23331.91667824 -.00947504  00000+0 -19552-1 0  9990
2 56812  70.0012 266.6391 0003450 263.2860 337.7143 15.48202719  6054
STARLINK-6056           
1 56813U 23078AY  23332.05305181 -.00004697  00000+0 -38597-3 0  9991
2 56813  70.0008 283.6528 0002329 242.0502 118.0421 14.98348482 28227
STARLINK-6059           
1 56814U 23078AZ  23332.12800981 -.00001793  00000+0 -14255-3 0  9997
2 56814  70.0014 283.5085 0002641 248.4064 111.6813 14.98322303 28231
STARLINK-6057           
1 56815U 23078BA  23332.08228136 -.00000132  00000+0 -32981-5 0  9993
2 56815  70.0014 283.8590 0002480 249.5288 110.5605 14.98334514 28220
STARLINK-6067           
1 56816U 23078BB  23331.91667824 -.00956881  00000+0 -19892-1 0  9999
2 56816  70.0015 266.4924 0003603 262.4683 105.9953 15.48014856  6030
STARLINK-5982           
1 56817U 23078BC  23332.06958865 -.00000667  00000+0 -48126-4 0  9992
2 56817  70.0024 283.7097 0002227 236.2662 123.8285 14.98333657 28220
STARLINK-6028           
1 56818U 23078BD  23332.11965159 -.00000759  00000+0 -55856-4 0  9993
2 56818  70.0025 283.4805 0002151 241.3825 118.7118 14.98333348 28236
STARLINK-30119          
1 56823U 23079A   23332.06060041  .00037950  00000+0  28079-2 0  9996
2 56823  43.0023 311.7893 0000462 281.7156  78.3635 15.02553833 27301
STARLINK-30120          
1 56824U 23079B   23332.05727196  .00017873  00000+0  13348-2 0  9992
2 56824  43.0006 311.7683 0000348 298.0006  62.0801 15.02535669 27311
STARLINK-30084          
1 56825U 23079C   23332.05393891  .00038645  00000+0  28585-2 0  9993
2 56825  43.0020 311.7421 0000746 272.5729  87.5028 15.02557355 27307
STARLINK-30114          
1 56826U 23079D   23332.07056557  .00048335  00000+0  35671-2 0  9992
2 56826  43.0023 311.6766 0001042 267.1686  92.9037 15.02551409 27319
STARLINK-30151          
1 56827U 23079E   23332.04726616 -.00007067  00000+0 -50854-3 0  9990
2 56827  43.0007 311.6892 0000423 267.2377  92.8417 15.02543234 27309
STARLINK-30152          
1 56828U 23079F   23331.44564199 -.00006114  00000+0 -43823-3 0  9990
2 56828  43.0024 314.9185 0001096 242.6833 117.3898 15.02511569 27549
STARLINK-30128          
1 56832U 23079K   23332.08434027 -.00001923  00000+0 -12728-3 0  9995
2 56832  43.0030 285.5448 0001595 240.8789 119.1894 15.02538962 27609
STARLINK-30131          
1 56833U 23079L   23332.07104501  .00002969  00000+0  23480-3 0  9992
2 56833  43.0032 285.6066 0001216 257.3420 102.7287 15.02535639 27617
STARLINK-30069          
1 56834U 23079M   23331.44231028 -.00003480  00000+0 -24281-3 0  9999
2 56834  43.0023 314.8877 0000488 275.4581  84.6206 15.02515708 27223
STARLINK-30144          
1 56835U 23079N   23332.03728767  .00031560  00000+0  23399-2 0  9993
2 56835  43.0019 311.6181 0000602 284.9597  75.1178 15.02551114 27305
STARLINK-30142          
1 56836U 23079P   23332.10043292  .00038980  00000+0  28823-2 0  9995
2 56836  43.0022 311.2303 0000611 255.9559 104.1215 15.02566996 27318
STARLINK-30133          
1 56837U 23079Q   23332.09710050  .00031089  00000+0  23050-2 0  9997
2 56837  43.0023 311.1913 0001251 226.9568 133.1169 15.02557130 27315
STARLINK-30123          
1 56838U 23079R   23332.07389866  .00035835  00000+0  26527-2 0  9998
2 56838  43.0032 311.7673 0000856 268.8831  91.1914 15.02558702 27309
STARLINK-30076          
1 56839U 23079S   23332.09376703  .00032873  00000+0  24353-2 0  9991
2 56839  43.0026 311.1663 0000656 286.4400  73.6370 15.02564705 27314
STARLINK-30073          
1 56840U 23079T   23332.07747276  .00013662  00000+0  10243-2 0  9996
2 56840  43.0030 298.7692 0001222 224.5345 135.5399 15.02540658 27459
STARLINK-30078          
1 56841U 23079U   23332.09044175  .00035940  00000+0  26601-2 0  9995
2 56841  43.0023 311.1547 0000602 253.7275 106.3501 15.02562918 27317
STARLINK-30135          
1 56842U 23079V   23332.06391531  .00011480  00000+0  86364-3 0  9990
2 56842  43.0042 311.7181 0000846 270.4226  89.6519 15.02529307 27307
STARLINK-30137          
1 56843U 23079W   23331.98409865  .00000893  00000+0  81154-4 0  9990
2 56843  43.0042 311.9787 0000781 225.5913 134.4866 15.02549635 27292
STARLINK-30136          
1 56844U 23079X   23332.07723179  .00041513  00000+0  30682-2 0  9991
2 56844  43.0022 311.8062 0000471 285.3196  74.7594 15.02558510 27307
STARLINK-6206           
1 56876U 23083A   23332.04013939  .00009404  00000+0  71012-3 0  9990
2 56876  43.0045 286.5630 0000931 278.5431  81.5306 15.02545632 25613
STARLINK-6209           
1 56877U 23083B   23332.03236954  .00019144  00000+0  14277-2 0  9995
2 56877  43.0039 286.5025 0001052 288.5330  71.5398 15.02553345 25619
STARLINK-6182           
1 56878U 23083C   23332.03902130 -.00002398  00000+0 -16246-3 0  9996
2 56878  43.0044 286.5540 0001204 245.4914 114.5803 15.02546218 25617
STARLINK-5707           
1 56879U 23083D   23332.03570068  .00019691  00000+0  14680-2 0  9999
2 56879  43.0040 286.5286 0001136 289.2514  70.8206 15.02552283 25617
